{"type": "FeatureCollection", "features": [ {"type": "Feature", "properties": {"norad_id": 31482, "name": "FENGYUN 1C DEB", "group": "fengyun-1c-debris", "lat": -81.49605305715431, "lon": 65.0588606051568, "alt_km": 724.7768057340363, "timestamp": "2025-12-06T14:35:37.409289+00:00", "meta": {"OBJECT_NAME": "FENGYUN 1C DEB", "OBJECT_ID": "1999-025BVW", "EPOCH": "2025-12-06T06:42:55.380096", "MEAN_MOTION": 14.35613089, "ECCENTRICITY": 0.00889651, "INCLINATION": 98.3818, "RA_OF_ASC_NODE": 344.3161, "ARG_OF_PERICENTER": 301.7682, "MEAN_ANOMALY": 74.582, "EPHEMERIS_TYPE": 0, "CLASSIFICATION_TYPE": "U", "NORAD_CAT_ID": 31482, "ELEMENT_SET_NO": 999, "REV_AT_EPOCH": 97037, "BSTAR": 0.0014918501, "MEAN_MOTION_DOT": 4.457e-05, "MEAN_MOTION_DDOT": 0}, "tle": {"line1": "1 31482U 99025BVW 25340.27980764  .00004457  00000+0  14919-2 0  9995", "line2": "2 31482  98.3818 344.3161 0088965 301.7682  74.5820 14.35613089970374"}}, "geometry": {"type": "Point", "coordinates": [65.0588606051568, -81.49605305715431]}}, {"type": "Feature", "properties": {"norad_id": 31483, "name": "FENGYUN 1C DEB", "group": "fengyun-1c-debris", "lat": -11.02473594759304, "lon": 105.95592835122252, "alt_km": 782.2525402424963, "timestamp": "2025-12-06T14:35:37.409300+00:00", "meta": {"OBJECT_NAME": "FENGYUN 1C DEB", "OBJECT_ID": "1999-025BVX", "EPOCH": "2025-12-06T02:07:45.156576", "MEAN_MOTION": 14.15905487, "ECCENTRICITY": 0.01192105, "INCLINATION": 102.5024, "RA_OF_ASC_NODE": 287.7075, "ARG_OF_PERICENTER": 237.7726, "MEAN_ANOMALY": 188.3627, "EPHEMERIS_TYPE": 0, "CLASSIFICATION_TYPE": "U", "NORAD_CAT_ID": 31483, "ELEMENT_SET_NO": 999, "REV_AT_EPOCH": 94612, "BSTAR": 0.0045256086, "MEAN_MOTION_DOT": 9.487e-05, "MEAN_MOTION_DDOT": 0}, "tle": {"line1": "1 31483U 99025BVX 25340.08871709  .00009487  00000+0  45256-2 0  9999", "line2": "2 31483 102.5024 287.7075 0119210 237.7726 188.3627 14.15905487946120"}}, "geometry": {"type": "Point", "coordinates": [105.95592835122252, -11.02473594759304]}}, {"type": "Feature", "properties": {"norad_id": 31484, "name": "FENGYUN 1C DEB", "group": "fengyun-1c-debris", "lat": -1.133245879011505, "lon": 94.32301415966334, "alt_km": 670.9888158817239, "timestamp": "2025-12-06T14:35:37.409310+00:00", "meta": {"OBJECT_NAME": "FENGYUN 1C DEB", "OBJECT_ID": "1999-025BVY", "EPOCH": "2025-12-04T02:08:44.405376", "MEAN_MOTION": 14.49883336, "ECCENTRICITY": 0.00826208, "INCLINATION": 101.8049, "RA_OF_ASC_NODE": 271.0436, "ARG_OF_PERICENTER": 175.5748, "MEAN_ANOMALY": 184.6182, "EPHEMERIS_TYPE": 0, "CLASSIFICATION_TYPE": "U", "NORAD_CAT_ID": 31484, "ELEMENT_SET_NO": 999, "REV_AT_EPOCH": 64112, "BSTAR": 0.011456506, "MEAN_MOTION_DOT": 0.00046489, "MEAN_MOTION_DDOT": 0}, "tle": {"line1": "1 31484U 99025BVY 25338.08940284  .00046489  00000+0  11457-1 0  9990", "line2": "2 31484 101.8049 271.0436 0082620 175.5748 184.6182 14.49883336641126"}}, "geometry": {"type": "Point", "coordinates": [94.32301415966334, -1.133245879011505]}}, {"type": "Feature", "properties": {"norad_id": 31485, "name": "FENGYUN 1C DEB", "group": "fengyun-1c-debris", "lat": 1.4642386338632543, "lon": -13.39835417151889, "alt_km": 1407.9223097430686, "timestamp": "2025-12-06T14:35:37.409320+00:00", "meta": {"OBJECT_NAME": "FENGYUN 1C DEB", "OBJECT_ID": "1999-025BVZ", "EPOCH": "2025-12-05T05:25:51.734208", "MEAN_MOTION": 13.39990028, "ECCENTRICITY": 0.04455994, "INCLINATION": 102.7187, "RA_OF_ASC_NODE": 164.5369, "ARG_OF_PERICENTER": 335.1163, "MEAN_ANOMALY": 22.9046, "EPHEMERIS_TYPE": 0, "CLASSIFICATION_TYPE": "U", "NORAD_CAT_ID": 31485, "ELEMENT_SET_NO": 999, "REV_AT_EPOCH": 90344, "BSTAR": 0.0052606302, "MEAN_MOTION_DOT": 5.061e-05, "MEAN_MOTION_DDOT": 0}, "tle": {"line1": "1 31485U 99025BVZ 25339.22629322  .00005061  00000+0  52606-2 0  9998", "line2": "2 31485 102.7187 164.5369 0445599 335.1163  22.9046 13.39990028903448"}}, "geometry": {"type": "Point", "coordinates": [-13.39835417151889, 1.4642386338632543]}}, {"type": "Feature", "properties": {"norad_id": 31487, "name": "FENGYUN 1C DEB", "group": "fengyun-1c-debris", "lat": 68.0935477736994, "lon": 0.1490191455442846, "alt_km": 968.076243511011, "timestamp": "2025-12-06T14:35:37.409331+00:00", "meta": {"OBJECT_NAME": "FENGYUN 1C DEB", "OBJECT_ID": "1999-025BWB", "EPOCH": "2025-12-05T06:17:59.588736", "MEAN_MOTION": 13.97683176, "ECCENTRICITY": 0.0119984, "INCLINATION": 102.4135, "RA_OF_ASC_NODE": 145.1269, "ARG_OF_PERICENTER": 324.2493, "MEAN_ANOMALY": 215.8967, "EPHEMERIS_TYPE": 0, "CLASSIFICATION_TYPE": "U", "NORAD_CAT_ID": 31487, "ELEMENT_SET_NO": 999, "REV_AT_EPOCH": 94307, "BSTAR": 0.0023273738, "MEAN_MOTION_DOT": 3.422e-05, "MEAN_MOTION_DDOT": 0}, "tle": {"line1": "1 31487U 99025BWB 25339.26249524  .00003422  00000+0  23274-2 0  9994", "line2": "2 31487 102.4135 145.1269 0119984 324.2493 215.8967 13.97683176943070"}}, "geometry": {"type": "Point", "coordinates": [0.1490191455442846, 68.0935477736994]}}, {"type": "Feature", "properties": {"norad_id": 31491, "name": "FENGYUN 1C DEB", "group": "fengyun-1c-debris", "lat": -57.784011186714054, "lon": 53.85077885333806, "alt_km": 815.3656005933799, "timestamp": "2025-12-06T14:35:37.409341+00:00", "meta": {"OBJECT_NAME": "FENGYUN 1C DEB", "OBJECT_ID": "1999-025BWE", "EPOCH": "2025-12-06T04:59:33.394560", "MEAN_MOTION": 14.1718589, "ECCENTRICITY": 0.00532624, "INCLINATION": 99.3042, "RA_OF_ASC_NODE": 248.5122, "ARG_OF_PERICENTER": 286.6061, "MEAN_ANOMALY": 72.9267, "EPHEMERIS_TYPE": 0, "CLASSIFICATION_TYPE": "U", "NORAD_CAT_ID": 31491, "ELEMENT_SET_NO": 999, "REV_AT_EPOCH": 63635, "BSTAR": 0.0031475615, "MEAN_MOTION_DOT": 6.393e-05, "MEAN_MOTION_DDOT": 0}, "tle": {"line1": "1 31491U 99025BWE 25340.20802540  .00006393  00000+0  31476-2 0  9991", "line2": "2 31491  99.3042 248.5122 0053262 286.6061  72.9267 14.17185890636358"}}, "geometry": {"type": "Point", "coordinates": [53.85077885333806, -57.784011186714054]}}, {"type": "Feature", "properties": {"norad_id": 31492, "name": "FENGYUN 1C DEB", "group": "fengyun-1c-debris", "lat": 35.134641213524134, "lon": 139.79907277004276, "alt_km": 612.6739232356949, "timestamp": "2025-12-06T14:35:37.409350+00:00", "meta": {"OBJECT_NAME": "FENGYUN 1C DEB", "OBJECT_ID": "1999-025BWF", "EPOCH": "2025-12-05T22:06:08.702784", "MEAN_MOTION": 14.70358555, "ECCENTRICITY": 0.00641903, "INCLINATION": 98.8556, "RA_OF_ASC_NODE": 145.3522, "ARG_OF_PERICENTER": 30.1462, "MEAN_ANOMALY": 330.3411, "EPHEMERIS_TYPE": 0, "CLASSIFICATION_TYPE": "U", "NORAD_CAT_ID": 31492, "ELEMENT_SET_NO": 999, "REV_AT_EPOCH": 96406, "BSTAR": 0.0044864604, "MEAN_MOTION_DOT": 0.00028049, "MEAN_MOTION_DDOT": 0}, "tle": {"line1": "1 31492U 99025BWF 25339.92093406  .00028049  00000+0  44865-2 0  9990", "line2": "2 31492  98.8556 145.3522 0064190  30.1462 330.3411 14.70358555964063"}}, "geometry": {"type": "Point", "coordinates": [139.79907277004276, 35.134641213524134]}}, {"type": "Feature", "properties": {"norad_id": 31493, "name": "FENGYUN 1C DEB", "group": "fengyun-1c-debris", "lat": -76.50090860857466, "lon": 57.75720526061708, "alt_km": 894.046590858622, "timestamp": "2025-12-06T14:35:37.409360+00:00", "meta": {"OBJECT_NAME": "FENGYUN 1C DEB", "OBJECT_ID": "1999-025BWG", "EPOCH": "2025-12-02T16:15:30.729600", "MEAN_MOTION": 13.92937252, "ECCENTRICITY": 0.01169898, "INCLINATION": 100.135, "RA_OF_ASC_NODE": 281.6254, "ARG_OF_PERICENTER": 202.4097, "MEAN_ANOMALY": 157.1925, "EPHEMERIS_TYPE": 0, "CLASSIFICATION_TYPE": "U", "NORAD_CAT_ID": 31493, "ELEMENT_SET_NO": 999, "REV_AT_EPOCH": 59726, "BSTAR": 0.00081568072, "MEAN_MOTION_DOT": 1.068e-05, "MEAN_MOTION_DDOT": 0}, "tle": {"line1": "1 31493U 99025BWG 25336.67743900  .00001068  00000+0  81568-3 0  9995", "line2": "2 31493 100.1350 281.6254 0116989 202.4097 157.1925 13.92937252597260"}}, "geometry": {"type": "Point", "coordinates": [57.75720526061708, -76.50090860857466]}}, {"type": "Feature", "properties": {"norad_id": 31495, "name": "FENGYUN 1C DEB", "group": "fengyun-1c-debris", "lat": 9.455883311719385, "lon": -148.0346915998088, "alt_km": 814.2621343142264, "timestamp": "2025-12-06T14:35:37.409370+00:00", "meta": {"OBJECT_NAME": "FENGYUN 1C DEB", "OBJECT_ID": "1999-025BWJ", "EPOCH": "2025-11-29T09:28:29.855136", "MEAN_MOTION": 14.2907414, "ECCENTRICITY": 0.00253264, "INCLINATION": 99.1199, "RA_OF_ASC_NODE": 205.9571, "ARG_OF_PERICENTER": 218.4335, "MEAN_ANOMALY": 141.5042, "EPHEMERIS_TYPE": 0, "CLASSIFICATION_TYPE": "U", "NORAD_CAT_ID": 31495, "ELEMENT_SET_NO": 999, "REV_AT_EPOCH": 63200, "BSTAR": 0.0012827316, "MEAN_MOTION_DOT": 3.214e-05, "MEAN_MOTION_DDOT": 0}, "tle": {"line1": "1 31495U 99025BWJ 25333.39478999  .00003214  00000+0  12827-2 0  9992", "line2": "2 31495  99.1199 205.9571 0025326 218.4335 141.5042 14.29074140632005"}}, "geometry": {"type": "Point", "coordinates": [-148.0346915998088, 9.455883311719385]}}, {"type": "Feature", "properties": {"norad_id": 31497, "name": "FENGYUN 1C DEB", "group": "fengyun-1c-debris", "lat": -57.026684407308274, "lon": -22.57162792480496, "alt_km": 705.6153629718419, "timestamp": "2025-12-06T14:35:37.409380+00:00", "meta": {"OBJECT_NAME": "FENGYUN 1C DEB", "OBJECT_ID": "1999-025BWL", "EPOCH": "2025-12-03T05:08:39.245568", "MEAN_MOTION": 14.39191841, "ECCENTRICITY": 0.0168475, "INCLINATION": 98.3696, "RA_OF_ASC_NODE": 320.9979, "ARG_OF_PERICENTER": 11.741, "MEAN_ANOMALY": 358.9016, "EPHEMERIS_TYPE": 0, "CLASSIFICATION_TYPE": "U", "NORAD_CAT_ID": 31497, "ELEMENT_SET_NO": 999, "REV_AT_EPOCH": 97418, "BSTAR": 0.00041155, "MEAN_MOTION_DOT": 1.457e-05, "MEAN_MOTION_DDOT": 0}, "tle": {"line1": "1 31497U 99025BWL 25337.21434312  .00001457  00000+0  41155-3 0  9994", "line2": "2 31497  98.3696 320.9979 0168475  11.7410 358.9016 14.39191841974183"}}, "geometry": {"type": "Point", "coordinates": [-22.57162792480496, -57.026684407308274]}}]}